<?xml version="1.0" encoding="utf-8"?>
<q:quakeml xmlns:q="http://quakeml.org/xmlns/quakeml/1.2" xmlns="http://quakeml.org/xmlns/bed/1.2" xmlns:catalog="http://anss.org/xmlns/catalog/0.1">
  <eventParameters publicID="quakeml:local/catalog/1472159709387170#event=305060">
    <creationInfo>
      <creationTime>2016-08-25T21:15:09.387170Z</creationTime>
      <agencyID>XX</agencyID>
      <version>1472159709387170</version>
    </creationInfo>
    <event publicID="quakeml:local/event/305060">
      <type>earthquake</type>
      <creationInfo>
        <creationTime>2016-07-21T14:44:19.302900Z</creationTime>
        <agencyID>XX</agencyID>
        <version>305060</version>
      </creationInfo>
      <preferredOriginID>quakeml:local/origin/388525</preferredOriginID>
      <origin publicID="quakeml:local/origin/388525">
        <latitude>
          <value>41.4399</value>
        </latitude>
        <longitude>
          <value>-29.3565</value>
        </longitude>
        <depth>
          <value>10000.0</value>
        </depth>
        <time>
          <value>2016-07-14T08:36:29.440000Z</value>
        </time>
        <quality>
          <standardError>0.9392</standardError>
          <usedPhaseCount>0</usedPhaseCount>
          <associatedPhaseCount>28</associatedPhaseCount>
          <usedStationCount>0</usedStationCount>
          <associatedStationCount>26</associatedStationCount>
          <minimumDistance>21.117</minimumDistance>
          <maximumDistance>63.35</maximumDistance>
          <azimuthalGap>317.58</azimuthalGap>
        </quality>
        <evaluationMode>manual</evaluationMode>
        <evaluationStatus>reviewed</evaluationStatus>
        <creationInfo>
          <creationTime>2016-07-21T14:44:12.534970Z</creationTime>
          <agencyID>XX</agencyID>
          <author>USGS:us</author>
          <version>388525</version>
        </creationInfo>
        <comment id="quakeml:local/origin/388525#etype">
          <text>eq</text>
        </comment>
        <arrival publicID="quakeml:local/assoc/388525-1285765">
          <pickID>quakeml:local/arrival/1285765</pickID>
          <phase>P</phase>
          <azimuth>301.28</azimuth>
          <distance>21.117</distance>
          <timeResidual>-1.089</timeResidual>
          <earthModelID>smi:local/vmodel/iasp91</earthModelID>
          <creationInfo>
            <creationTime>2016-07-21T14:44:02.660790Z</creationTime>
            <agencyID>XX</agencyID>
            <version>1285765</version>
          </creationInfo>
        </arrival>
        <arrival publicID="quakeml:local/assoc/388525-1285775">
          <pickID>quakeml:local/arrival/1285775</pickID>
          <phase>P</phase>
          <azimuth>292.62</azimuth>
          <distance>25.843</distance>
          <timeResidual>0.585</timeResidual>
          <earthModelID>smi:local/vmodel/iasp91</earthModelID>
          <creationInfo>
            <creationTime>2016-07-21T14:44:02.686340Z</creationTime>
            <agencyID>XX</agencyID>
            <version>1285775</version>
          </creationInfo>
        </arrival>
        <arrival publicID="quakeml:local/assoc/388525-1280510">
          <pickID>quakeml:local/arrival/1280510</pickID>
          <phase>P</phase>
          <azimuth>292.23</azimuth>
          <distance>26.202</distance>
          <timeResidual>0.679</timeResidual>
          <earthModelID>smi:local/vmodel/iasp91</earthModelID>
          <creationInfo>
            <creationTime>2016-07-21T14:44:02.696060Z</creationTime>
            <agencyID>XX</agencyID>
            <version>1280510</version>
          </creationInfo>
        </arrival>
        <arrival publicID="quakeml:local/assoc/388525-1285782">
          <pickID>quakeml:local/arrival/1285782</pickID>
          <phase>pP</phase>
          <azimuth>292.23</azimuth>
          <distance>26.202</distance>
          <timeResidual>-0.749</timeResidual>
          <earthModelID>smi:local/vmodel/iasp91</earthModelID>
          <creationInfo>
            <creationTime>2016-07-21T14:44:02.699130Z</creationTime>
            <agencyID>XX</agencyID>
            <version>1285782</version>
          </creationInfo>
        </arrival>
        <arrival publicID="quakeml:local/assoc/388525-1285766">
          <pickID>quakeml:local/arrival/1285766</pickID>
          <phase>P</phase>
          <azimuth>293.24</azimuth>
          <distance>33.22</distance>
          <timeResidual>0.098</timeResidual>
          <earthModelID>smi:local/vmodel/iasp91</earthModelID>
          <creationInfo>
            <creationTime>2016-07-21T14:44:02.701870Z</creationTime>
            <agencyID>XX</agencyID>
            <version>1285766</version>
          </creationInfo>
        </arrival>
        <arrival publicID="quakeml:local/assoc/388525-1285762">
          <pickID>quakeml:local/arrival/1285762</pickID>
          <phase>P</phase>
          <azimuth>301.81</azimuth>
          <distance>43.281</distance>
          <timeResidual>-0.457</timeResidual>
          <earthModelID>smi:local/vmodel/iasp91</earthModelID>
          <creationInfo>
            <creationTime>2016-07-21T14:44:02.706820Z</creationTime>
            <agencyID>XX</agencyID>
            <version>1285762</version>
          </creationInfo>
        </arrival>
        <arrival publicID="quakeml:local/assoc/388525-1280512">
          <pickID>quakeml:local/arrival/1280512</pickID>
          <phase>P</phase>
          <azimuth>313.19</azimuth>
          <distance>54.755</distance>
          <timeResidual>1.184</timeResidual>
          <earthModelID>smi:local/vmodel/iasp91</earthModelID>
          <creationInfo>
            <creationTime>2016-07-21T14:44:02.709840Z</creationTime>
            <agencyID>XX</agencyID>
            <version>1280512</version>
          </creationInfo>
        </arrival>
        <arrival publicID="quakeml:local/assoc/388525-1280529">
          <pickID>quakeml:local/arrival/1280529</pickID>
          <phase>P</phase>
          <azimuth>310.9</azimuth>
          <distance>56.279</distance>
          <timeResidual>0.331</timeResidual>
          <earthModelID>smi:local/vmodel/iasp91</earthModelID>
          <creationInfo>
            <creationTime>2016-07-21T14:44:02.713560Z</creationTime>
            <agencyID>XX</agencyID>
            <version>1280529</version>
          </creationInfo>
        </arrival>
        <arrival publicID="quakeml:local/assoc/388525-1280513">
          <pickID>quakeml:local/arrival/1280513</pickID>
          <phase>P</phase>
          <azimuth>334.65</azimuth>
          <distance>56.83</distance>
          <timeResidual>-0.48</timeResidual>
          <earthModelID>smi:local/vmodel/iasp91</earthModelID>
          <creationInfo>
            <creationTime>2016-07-21T14:44:02.724370Z</creationTime>
            <agencyID>XX</agencyID>
            <version>1280513</version>
          </creationInfo>
        </arrival>
        <arrival publicID="quakeml:local/assoc/388525-1280530">
          <pickID>quakeml:local/arrival/1280530</pickID>
          <phase>P</phase>
          <azimuth>308.83</azimuth>
          <distance>56.869</distance>
          <timeResidual>0.837</timeResidual>
          <earthModelID>smi:local/vmodel/iasp91</earthModelID>
          <creationInfo>
            <creationTime>2016-07-21T14:44:02.727360Z</creationTime>
            <agencyID>XX</agencyID>
            <version>1280530</version>
          </creationInfo>
        </arrival>
        <arrival publicID="quakeml:local/assoc/388525-1280514">
          <pickID>quakeml:local/arrival/1280514</pickID>
          <phase>P</phase>
          <azimuth>322.15</azimuth>
          <distance>57.182</distance>
          <timeResidual>0.205</timeResidual>
          <earthModelID>smi:local/vmodel/iasp91</earthModelID>
          <creationInfo>
            <creationTime>2016-07-21T14:44:02.730250Z</creationTime>
            <agencyID>XX</agencyID>
            <version>1280514</version>
          </creationInfo>
        </arrival>
        <arrival publicID="quakeml:local/assoc/388525-1285774">
          <pickID>quakeml:local/arrival/1285774</pickID>
          <phase>P</phase>
          <azimuth>312.53</azimuth>
          <distance>58.291</distance>
          <timeResidual>1.574</timeResidual>
          <earthModelID>smi:local/vmodel/iasp91</earthModelID>
          <creationInfo>
            <creationTime>2016-07-21T14:44:02.733250Z</creationTime>
            <agencyID>XX</agencyID>
            <version>1285774</version>
          </creationInfo>
        </arrival>
        <arrival publicID="quakeml:local/assoc/388525-1285773">
          <pickID>quakeml:local/arrival/1285773</pickID>
          <phase>P</phase>
          <azimuth>311.2</azimuth>
          <distance>60.024</distance>
          <timeResidual>0.965</timeResidual>
          <earthModelID>smi:local/vmodel/iasp91</earthModelID>
          <creationInfo>
            <creationTime>2016-07-21T14:44:02.735980Z</creationTime>
            <agencyID>XX</agencyID>
            <version>1285773</version>
          </creationInfo>
        </arrival>
        <arrival publicID="quakeml:local/assoc/388525-1285770">
          <pickID>quakeml:local/arrival/1285770</pickID>
          <phase>P</phase>
          <azimuth>313.32</azimuth>
          <distance>60.625</distance>
          <timeResidual>1.117</timeResidual>
          <earthModelID>smi:local/vmodel/iasp91</earthModelID>
          <creationInfo>
            <creationTime>2016-07-21T14:44:02.738840Z</creationTime>
            <agencyID>XX</agencyID>
            <version>1285770</version>
          </creationInfo>
        </arrival>
        <arrival publicID="quakeml:local/assoc/388525-1280518">
          <pickID>quakeml:local/arrival/1280518</pickID>
          <phase>P</phase>
          <azimuth>332.02</azimuth>
          <distance>61.127</distance>
          <timeResidual>0.474</timeResidual>
          <earthModelID>smi:local/vmodel/iasp91</earthModelID>
          <creationInfo>
            <creationTime>2016-07-21T14:44:02.741640Z</creationTime>
            <agencyID>XX</agencyID>
            <version>1280518</version>
          </creationInfo>
        </arrival>
        <arrival publicID="quakeml:local/assoc/388525-1280526">
          <pickID>quakeml:local/arrival/1280526</pickID>
          <phase>P</phase>
          <azimuth>328.53</azimuth>
          <distance>61.29</distance>
          <timeResidual>0.926</timeResidual>
          <earthModelID>smi:local/vmodel/iasp91</earthModelID>
          <creationInfo>
            <creationTime>2016-07-21T14:44:02.744580Z</creationTime>
            <agencyID>XX</agencyID>
            <version>1280526</version>
          </creationInfo>
        </arrival>
        <arrival publicID="quakeml:local/assoc/388525-1285776">
          <pickID>quakeml:local/arrival/1285776</pickID>
          <phase>P</phase>
          <azimuth>327.47</azimuth>
          <distance>61.404</distance>
          <timeResidual>1.194</timeResidual>
          <earthModelID>smi:local/vmodel/iasp91</earthModelID>
          <creationInfo>
            <creationTime>2016-07-21T14:44:02.747420Z</creationTime>
            <agencyID>XX</agencyID>
            <version>1285776</version>
          </creationInfo>
        </arrival>
        <arrival publicID="quakeml:local/assoc/388525-1285780">
          <pickID>quakeml:local/arrival/1285780</pickID>
          <phase>P</phase>
          <azimuth>328.86</azimuth>
          <distance>62.307</distance>
          <timeResidual>0.737</timeResidual>
          <earthModelID>smi:local/vmodel/iasp91</earthModelID>
          <creationInfo>
            <creationTime>2016-07-21T14:44:02.750510Z</creationTime>
            <agencyID>XX</agencyID>
            <version>1285780</version>
          </creationInfo>
        </arrival>
        <arrival publicID="quakeml:local/assoc/388525-1280527">
          <pickID>quakeml:local/arrival/1280527</pickID>
          <phase>P</phase>
          <azimuth>328.47</azimuth>
          <distance>62.351</distance>
          <timeResidual>1.493</timeResidual>
          <earthModelID>smi:local/vmodel/iasp91</earthModelID>
          <creationInfo>
            <creationTime>2016-07-21T14:44:02.753570Z</creationTime>
            <agencyID>XX</agencyID>
            <version>1280527</version>
          </creationInfo>
        </arrival>
        <arrival publicID="quakeml:local/assoc/388525-1285779">
          <pickID>quakeml:local/arrival/1285779</pickID>
          <phase>P</phase>
          <azimuth>329.36</azimuth>
          <distance>62.39</distance>
          <timeResidual>0.889</timeResidual>
          <earthModelID>smi:local/vmodel/iasp91</earthModelID>
          <creationInfo>
            <creationTime>2016-07-21T14:44:02.756420Z</creationTime>
            <agencyID>XX</agencyID>
            <version>1285779</version>
          </creationInfo>
        </arrival>
        <arrival publicID="quakeml:local/assoc/388525-1285781">
          <pickID>quakeml:local/arrival/1285781</pickID>
          <phase>P</phase>
          <azimuth>328.86</azimuth>
          <distance>62.615</distance>
          <timeResidual>1.346</timeResidual>
          <earthModelID>smi:local/vmodel/iasp91</earthModelID>
          <creationInfo>
            <creationTime>2016-07-21T14:44:02.759230Z</creationTime>
            <agencyID>XX</agencyID>
            <version>1285781</version>
          </creationInfo>
        </arrival>
        <arrival publicID="quakeml:local/assoc/388525-1285764">
          <pickID>quakeml:local/arrival/1285764</pickID>
          <phase>P</phase>
          <azimuth>314.1</azimuth>
          <distance>62.818</distance>
          <timeResidual>0.253</timeResidual>
          <earthModelID>smi:local/vmodel/iasp91</earthModelID>
          <creationInfo>
            <creationTime>2016-07-21T14:44:02.762190Z</creationTime>
            <agencyID>XX</agencyID>
            <version>1285764</version>
          </creationInfo>
        </arrival>
        <arrival publicID="quakeml:local/assoc/388525-1285778">
          <pickID>quakeml:local/arrival/1285778</pickID>
          <phase>P</phase>
          <azimuth>330.29</azimuth>
          <distance>62.903</distance>
          <timeResidual>0.813</timeResidual>
          <earthModelID>smi:local/vmodel/iasp91</earthModelID>
          <creationInfo>
            <creationTime>2016-07-21T14:44:02.765090Z</creationTime>
            <agencyID>XX</agencyID>
            <version>1285778</version>
          </creationInfo>
        </arrival>
        <arrival publicID="quakeml:local/assoc/388525-1285777">
          <pickID>quakeml:local/arrival/1285777</pickID>
          <phase>P</phase>
          <azimuth>330.41</azimuth>
          <distance>63.051</distance>
          <timeResidual>0.585</timeResidual>
          <earthModelID>smi:local/vmodel/iasp91</earthModelID>
          <creationInfo>
            <creationTime>2016-07-21T14:44:02.768290Z</creationTime>
            <agencyID>XX</agencyID>
            <version>1285777</version>
          </creationInfo>
        </arrival>
        <arrival publicID="quakeml:local/assoc/388525-1285768">
          <pickID>quakeml:local/arrival/1285768</pickID>
          <phase>P</phase>
          <azimuth>319.42</azimuth>
          <distance>63.062</distance>
          <timeResidual>0.965</timeResidual>
          <earthModelID>smi:local/vmodel/iasp91</earthModelID>
          <creationInfo>
            <creationTime>2016-07-21T14:44:02.787050Z</creationTime>
            <agencyID>XX</agencyID>
            <version>1285768</version>
          </creationInfo>
        </arrival>
        <arrival publicID="quakeml:local/assoc/388525-1285771">
          <pickID>quakeml:local/arrival/1285771</pickID>
          <phase>P</phase>
          <azimuth>312.36</azimuth>
          <distance>63.116</distance>
          <timeResidual>1.27</timeResidual>
          <earthModelID>smi:local/vmodel/iasp91</earthModelID>
          <creationInfo>
            <creationTime>2016-07-21T14:44:02.789970Z</creationTime>
            <agencyID>XX</agencyID>
            <version>1285771</version>
          </creationInfo>
        </arrival>
        <arrival publicID="quakeml:local/assoc/388525-1280528">
          <pickID>quakeml:local/arrival/1280528</pickID>
          <phase>pP</phase>
          <azimuth>313.63</azimuth>
          <distance>63.211</distance>
          <timeResidual>-1.499</timeResidual>
          <earthModelID>smi:local/vmodel/iasp91</earthModelID>
          <creationInfo>
            <creationTime>2016-07-21T14:44:02.792880Z</creationTime>
            <agencyID>XX</agencyID>
            <version>1280528</version>
          </creationInfo>
        </arrival>
        <arrival publicID="quakeml:local/assoc/388525-1285763">
          <pickID>quakeml:local/arrival/1285763</pickID>
          <phase>P</phase>
          <azimuth>312.88</azimuth>
          <distance>63.35</distance>
          <timeResidual>1.023</timeResidual>
          <earthModelID>smi:local/vmodel/iasp91</earthModelID>
          <creationInfo>
            <creationTime>2016-07-21T14:44:02.795690Z</creationTime>
            <agencyID>XX</agencyID>
            <version>1285763</version>
          </creationInfo>
        </arrival>
      </origin>
      <magnitude publicID="quakeml:local/netmag/27534">
        <mag>
          <value>5.2</value>
        </mag>
        <type>mb</type>
        <originID>quakeml:local/origin/388525</originID>
        <evaluationMode>manual</evaluationMode>
        <evaluationStatus>reviewed</evaluationStatus>
        <creationInfo>
          <creationTime>2016-07-21T14:44:02.948700Z</creationTime>
          <agencyID>XX</agencyID>
          <author>USGS:us</author>
          <version>27534</version>
        </creationInfo>
      </magnitude>
      <pick publicID="quakeml:local/arrival/1285765">
        <time>
          <value>2016-07-14T08:41:13.148510Z</value>
          <uncertainty>1.674</uncertainty>
        </time>
        <waveformID stationCode="DRLN" channelCode="BHZ" networkCode="CN" locationCode=""></waveformID>
        <phaseHint>P</phaseHint>
        <creationInfo>
          <creationTime>2016-07-18T14:49:28.325070Z</creationTime>
          <agencyID>XX</agencyID>
          <author>dbp:nackerle:16</author>
          <version>1285765</version>
        </creationInfo>
        <evaluationMode>manual</evaluationMode>
        <evaluationStatus>reviewed</evaluationStatus>
      </pick>
      <pick publicID="quakeml:local/arrival/1285775">
        <time>
          <value>2016-07-14T08:42:01.589070Z</value>
          <uncertainty>3.271</uncertainty>
        </time>
        <waveformID stationCode="SVNB" channelCode="HHZ" networkCode="CN" locationCode=""></waveformID>
        <phaseHint>P</phaseHint>
        <creationInfo>
          <creationTime>2016-07-18T14:51:36.434870Z</creationTime>
          <agencyID>XX</agencyID>
          <author>dbp:nackerle:16</author>
          <version>1285775</version>
        </creationInfo>
        <evaluationMode>manual</evaluationMode>
        <evaluationStatus>reviewed</evaluationStatus>
      </pick>
      <pick publicID="quakeml:local/arrival/1280510">
        <time>
          <value>2016-07-14T08:42:04.931970Z</value>
          <uncertainty>0.18</uncertainty>
        </time>
        <waveformID stationCode="HKNB" channelCode="HHZ" networkCode="CN" locationCode=""></waveformID>
        <phaseHint>P</phaseHint>
        <creationInfo>
          <creationTime>2016-07-18T14:54:16.480230Z</creationTime>
          <agencyID>XX</agencyID>
          <author>dbp:nackerle:16</author>
          <version>1280510</version>
        </creationInfo>
        <evaluationMode>manual</evaluationMode>
        <evaluationStatus>reviewed</evaluationStatus>
      </pick>
      <pick publicID="quakeml:local/arrival/1285782">
        <time>
          <value>2016-07-14T08:42:06.543240Z</value>
          <uncertainty>0.18</uncertainty>
        </time>
